{
    "links": {
        "self": "http://www.neowsapp.com/rest/v1/neo/3596497?api_key=iIulBulltgU6a56xZRHN4H3l9WmuAYTsLGpBGhQ2"
    },
    "id": "3596497",
    "neo_reference_id": "3596497",
    "name": "(2012 BB62)",
    "designation": "2012 BB62",
    "nasa_jpl_url": "http://ssd.jpl.nasa.gov/sbdb.cgi?sstr=3596497",
    "absolute_magnitude_h": 26.0,
    "estimated_diameter": {
        "kilometers": {
            "estimated_diameter_min": 0.0167708462,
            "estimated_diameter_max": 0.0375007522
        },
        "meters": {
            "estimated_diameter_min": 16.7708462163,
            "estimated_diameter_max": 37.5007521798
        },
        "miles": {
            "estimated_diameter_min": 0.0104209175,
            "estimated_diameter_max": 0.0233018799
        },
        "feet": {
            "estimated_diameter_min": 55.0224631002,
            "estimated_diameter_max": 123.0339677816
        }
    },
    "is_potentially_hazardous_asteroid": false,
    "close_approach_data": [
        {
            "close_approach_date": "2012-01-16",
            "close_approach_date_full": "2012-Jan-16 11:49",
            "epoch_date_close_approach": 1326714540000,
            "relative_velocity": {
                "kilometers_per_second": "10.851628498",
                "kilometers_per_hour": "39065.8625926214",
                "miles_per_hour": "24274.0077870652"
            },
            "miss_distance": {
                "astronomical": "0.041073718",
                "lunar": "15.977676302",
                "kilometers": "6144540.72578066",
                "miles": "3818040.562106708"
            },
            "orbiting_body": "Earth"
        }
    ],
    "orbital_data": {
        "orbit_id": "5",
        "orbit_determination_date": "2017-04-06 08:51:12",
        "first_observation_date": "2012-01-26",
        "last_observation_date": "2012-02-01",
        "data_arc_in_days": 6,
        "observations_used": 15,
        "orbit_uncertainty": "8",
        "minimum_orbit_intersection": ".0363918",
        "jupiter_tisserand_invariant": "3.691",
        "epoch_osculation": "2455954.5",
        "eccentricity": ".5264617940426466",
        "semi_major_axis": "1.958803305945777",
        "inclination": "7.22341014018666",
        "ascending_node_longitude": "307.9382784683834",
        "orbital_period": "1001.347157538485",
        "perihelion_distance": ".9275682033208963",
        "perihelion_argument": "127.087257152385",
        "aphelion_distance": "2.990038408570658",
        "perihelion_time": "2455912.410534532893",
        "mean_anomaly": "15.13182261924599",
        "mean_motion": ".3595156757472137",
        "equinox": "J2000",
        "orbit_class": {
            "orbit_class_type": "APO",
            "orbit_class_description": "Near-Earth asteroid orbits which cross the Earth’s orbit similar to that of 1862 Apollo",
            "orbit_class_range": "a (semi-major axis) > 1.0 AU; q (perihelion) < 1.017 AU"
        }
    },
    "is_sentry_object": false
}